H1 CPF  1  DGF 2022 07 24 11  7051 larets     NONE      
H2   304206 5557    27944 2022 07 24 00 00 00 2022 07 31 00 00 00    30 1 1  0 0 0
H5  0.0650
H9
10 0 59789  39600.000000  0       4569590.902       5208044.065       1324069.667
10 0 59789  39630.000000  0       4631213.687       5205402.697       1104156.802
10 0 59789  39660.000000  0       4688097.234       5197201.739        883111.437
10 0 59789  39690.000000  0       4740159.894       5183471.047        661160.399
10 0 59789  39720.000000  0       4787325.146       5164246.525        438531.397
10 0 59789  39750.000000  0       4829521.705       5139570.062        215452.781
10 0 59789  39780.000000  0       4866683.619       5109489.461         -7846.698
10 0 59789  39810.000000  0       4898750.359       5074058.367       -231138.136
10 0 59789  39840.000000  0       4925666.907       5033336.176       -454192.716
10 0 59789  39870.000000  0       4947383.834       4987387.951       -676781.950
10 0 59789  39900.000000  0       4963857.369       4936284.320       -898677.924
10 0 59789  39930.000000  0       4975049.468       4880101.377      -1119653.536
10 0 59789  39960.000000  0       4980927.870       4818920.573      -1339482.741
10 0 59789  39990.000000  0       4981466.149       4752828.597      -1557940.783
10 0 59789  40020.000000  0       4976643.758       4681917.258      -1774804.438
10 0 59789  40050.000000  0       4966446.065       4606283.357      -1989852.246
10 0 59789  40080.000000  0       4950864.385       4526028.554      -2202864.742
10 0 59789  40110.000000  0       4929895.998       4441259.226      -2413624.687
10 0 59789  40140.000000  0       4903544.169       4352086.329      -2621917.290
10 0 59789  40170.000000  0       4871818.154       4258625.247      -2827530.434
10 0 59789  40200.000000  0       4834733.200       4160995.641      -3030254.894
10 0 59789  40230.000000  0       4792310.540       4059321.293      -3229884.550
10 0 59789  40260.000000  0       4744577.372       3953729.941      -3426216.601
10 0 59789  40290.000000  0       4691566.845       3844353.120      -3619051.765
10 0 59789  40320.000000  0       4633318.028       3731325.992      -3808194.481
10 0 59789  40350.000000  0       4569875.877       3614787.172      -3993453.107
10 0 59789  40380.000000  0       4501291.198       3494878.558      -4174640.109
10 0 59789  40410.000000  0       4427620.595       3371745.151      -4351572.248
10 0 59789  40440.000000  0       4348926.418       3245534.875      -4524070.763
10 0 59789  40470.000000  0       4265276.704       3116398.395      -4691961.541
10 0 59789  40500.000000  0       4176745.110       2984488.934      -4855075.290
10 0 59789  40530.000000  0       4083410.839       2849962.088      -5013247.700
10 0 59789  40560.000000  0       3985358.566       2712975.638      -5166319.601
10 0 59789  40590.000000  0       3882678.349       2573689.364      -5314137.121
10 0 59789  40620.000000  0       3775465.538       2432264.854      -5456551.822
10 0 59789  40650.000000  0       3663820.681       2288865.315      -5593420.849
10 0 59789  40680.000000  0       3547849.419       2143655.385      -5724607.054
10 0 59789  40710.000000  0       3427662.382       1996800.941      -5849979.128
10 0 59789  40740.000000  0       3303375.074       1848468.908      -5969411.719
10 0 59789  40770.000000  0       3175107.757       1698827.072      -6082785.550
10 0 59789  40800.000000  0       3042985.328       1548043.888      -6189987.521
10 0 59789  40830.000000  0       2907137.191       1396288.291      -6290910.812
10 0 59789  40860.000000  0       2767697.131       1243729.513      -6385454.976
10 0 59789  40890.000000  0       2624803.172       1090536.892      -6473526.030
10 0 59789  40920.000000  0       2478597.445        936879.688      -6555036.532
10 0 59789  40950.000000  0       2329226.038        782926.901      -6629905.659
10 0 59789  40980.000000  0       2176838.857        628847.089      -6698059.276
10 0 59789  41010.000000  0       2021589.472        474808.189      -6759429.999
10 0 59789  41040.000000  0       1863634.970        320977.335      -6813957.258
10 0 59789  41070.000000  0       1703135.789        167520.683      -6861587.352
10 0 59789  41100.000000  0       1540255.555         14603.233      -6902273.494
10 0 59789  41130.000000  0       1375160.915       -137611.348      -6935975.847
10 0 59789  41160.000000  0       1208021.364       -288960.891      -6962661.554
10 0 59789  41190.000000  0       1039009.078       -439284.897      -6982304.760
10 0 59789  41220.000000  0        868298.736       -588424.701      -6994886.632
10 0 59789  41250.000000  0        696067.348       -736223.631      -7000395.371
10 0 59789  41280.000000  0        522494.073       -882527.167      -6998826.215
10 0 59789  41310.000000  0        347760.038      -1027183.101      -6990181.448
10 0 59789  41340.000000  0        172048.158      -1170041.683      -6974470.387
10 0 59789  41370.000000  0         -4457.054      -1310955.773      -6951709.375
10 0 59789  41400.000000  0       -181569.673      -1449780.989      -6921921.770
10 0 59789  41430.000000  0       -359102.552      -1586375.850      -6885137.919
10 0 59789  41460.000000  0       -536867.524      -1720601.915      -6841395.129
10 0 59789  41490.000000  0       -714675.585      -1852323.925      -6790737.634
10 0 59789  41520.000000  0       -892337.098      -1981409.932      -6733216.551
10 0 59789  41550.000000  0      -1069661.989      -2107731.434      -6668889.831
10 0 59789  41580.000000  0      -1246459.940      -2231163.494      -6597822.202
10 0 59789  41610.000000  0      -1422540.594      -2351584.863      -6520085.112
10 0 59789  41640.000000  0      -1597713.748      -2468878.097      -6435756.660
10 0 59789  41670.000000  0      -1771789.556      -2582929.668      -6344921.530
10 0 59789  41700.000000  0      -1944578.729      -2693630.071      -6247670.908
10 0 59789  41730.000000  0      -2115892.736      -2800873.933      -6144102.404
10 0 59789  41760.000000  0      -2285544.006      -2904560.107      -6034319.960
10 0 59789  41790.000000  0      -2453346.130      -3004591.775      -5918433.760
10 0 59789  41820.000000  0      -2619114.064      -3100876.535      -5796560.129
10 0 59789  41850.000000  0      -2782664.334      -3193326.492      -5668821.427
10 0 59789  41880.000000  0      -2943815.237      -3281858.337      -5535345.932
10 0 59789  41910.000000  0      -3102387.045      -3366393.431      -5396267.719
10 0 59789  41940.000000  0      -3258202.202      -3446857.870      -5251726.539
10 0 59789  41970.000000  0      -3411085.525      -3523182.552      -5101867.677
10 0 59789  42000.000000  0      -3560864.400      -3595303.241      -4946841.826
10 0 59789  42030.000000  0      -3707368.974      -3663160.620      -4786804.936
10 0 59789  42060.000000  0      -3850432.355      -3726700.343      -4621918.072
10 0 59789  42090.000000  0      -3989890.797      -3785873.081      -4452347.256
10 0 59789  42120.000000  0      -4125583.894      -3840634.560      -4278263.313
10 0 59789  42150.000000  0      -4257354.766      -3890945.599      -4099841.704
10 0 59789  42180.000000  0      -4385050.242      -3936772.136      -3917262.357
10 0 59789  42210.000000  0      -4508521.046      -3978085.253      -3730709.491
10 0 59789  42240.000000  0      -4627621.969      -4014861.192      -3540371.438
10 0 59789  42270.000000  0      -4742212.050      -4047081.367      -3346440.457
10 0 59789  42300.000000  0      -4852154.740      -4074732.372      -3149112.543
10 0 59789  42330.000000  0      -4957318.074      -4097805.979      -2948587.236
10 0 59789  42360.000000  0      -5057574.831      -4116299.130      -2745067.418
10 0 59789  42390.000000  0      -5152802.689      -4130213.928      -2538759.117
10 0 59789  42420.000000  0      -5242884.383      -4139557.616      -2329871.291
10 0 59789  42450.000000  0      -5327707.848      -4144342.552      -2118615.629
10 0 59789  42480.000000  0      -5407166.366      -4144586.183      -1905206.330
10 0 59789  42510.000000  0      -5481158.699      -4140311.007      -1689859.891
10 0 59789  42540.000000  0      -5549589.225      -4131544.530      -1472794.884
10 0 59789  42570.000000  0      -5612368.060      -4118319.224      -1254231.734
10 0 59789  42600.000000  0      -5669411.180      -4100672.466      -1034392.491
10 0 59789  42630.000000  0      -5720640.534      -4078646.483       -813500.609
10 0 59789  42660.000000  0      -5765984.150      -4052288.286       -591780.710
10 0 59789  42690.000000  0      -5805376.237      -4021649.601       -369458.359
10 0 59789  42720.000000  0      -5838757.280      -3986786.791       -146759.823
10 0 59789  42750.000000  0      -5866074.125      -3947760.782         76088.157
10 0 59789  42780.000000  0      -5887280.059      -3904636.968        298858.608
10 0 59789  42810.000000  0      -5902334.882      -3857485.123        521324.560
10 0 59789  42840.000000  0      -5911204.973      -3806379.303        743259.285
10 0 59789  42870.000000  0      -5913863.338      -3751397.743        964436.532
10 0 59789  42900.000000  0      -5910289.665      -3692622.746       1184630.767
10 0 59789  42930.000000  0      -5900470.365      -3630140.573       1403617.404
10 0 59789  42960.000000  0      -5884398.597      -3564041.326       1621173.042
10 0 59789  42990.000000  0      -5862074.301      -3494418.825       1837075.696
10 0 59789  43020.000000  0      -5833504.209      -3421370.480       2051105.031
10 0 59789  43050.000000  0      -5798701.860      -3344997.169       2263042.585
10 0 59789  43080.000000  0      -5757687.597      -3265403.098       2472672.002
10 0 59789  43110.000000  0      -5710488.563      -3182695.671       2679779.253
10 0 59789  43140.000000  0      -5657138.690      -3096985.350       2884152.861
10 0 59789  43170.000000  0      -5597678.673      -3008385.513       3085584.122
99
